[{"OBJECT_NAME":"STARLINK-3587","OBJECT_ID":"2022-022AS","EPOCH":"2023-11-23T19:23:47.401728","MEAN_MOTION":15.08828929,"ECCENTRICITY":0.0001435,"INCLINATION":53.2165,"RA_OF_ASC_NODE":156.0268,"ARG_OF_PERICENTER":97.2448,"MEAN_ANOMALY":262.8707,"EPHEMERIS_TYPE":0,"CLASSIFICATION_TYPE":"U","NORAD_CAT_ID":51892,"ELEMENT_SET_NO":999,"REV_AT_EPOCH":9690,"BSTAR":-5.2585e-5,"MEAN_MOTION_DOT":-1.124e-5,"MEAN_MOTION_DDOT":0},{"OBJECT_NAME":"STARLINK-3579","OBJECT_ID":"2022-022AT","EPOCH":"2023-11-23T19:02:35.747520","MEAN_MOTION":15.08834216,"ECCENTRICITY":0.0001508,"INCLINATION":53.217,"RA_OF_ASC_NODE":156.0941,"ARG_OF_PERICENTER":88.6533,"MEAN_ANOMALY":271.4632,"EPHEMERIS_TYPE":0,"CLASSIFICATION_TYPE":"U","NORAD_CAT_ID":51893,"ELEMENT_SET_NO":999,"REV_AT_EPOCH":9696,"BSTAR":-1.0511e-5,"MEAN_MOTION_DOT":-4.55e-6,"MEAN_MOTION_DDOT":0},{"OBJECT_NAME":"STARLINK-3595","OBJECT_ID":"2022-022AU","EPOCH":"2023-11-23T19:07:53.717664","MEAN_MOTION":15.08829656,"ECCENTRICITY":0.000165,"INCLINATION":53.2154,"RA_OF_ASC_NODE":156.0798,"ARG_OF_PERICENTER":79.3582,"MEAN_ANOMALY":280.7596,"EPHEMERIS_TYPE":0,"CLASSIFICATION_TYPE":"U","NORAD_CAT_ID":51894,"ELEMENT_SET_NO":999,"REV_AT_EPOCH":9696,"BSTAR":-9.3926e-5,"MEAN_MOTION_DOT":-1.782e-5,"MEAN_MOTION_DDOT":0},{"OBJECT_NAME":"STARLINK-3594","OBJECT_ID":"2022-022AV","EPOCH":"2023-11-23T20:32:40.526304","MEAN_MOTION":15.08837478,"ECCENTRICITY":0.0001462,"INCLINATION":53.2144,"RA_OF_ASC_NODE":155.8138,"ARG_OF_PERICENTER":81.4293,"MEAN_ANOMALY":278.6864,"EPHEMERIS_TYPE":0,"CLASSIFICATION_TYPE":"U","NORAD_CAT_ID":51895,"ELEMENT_SET_NO":999,"REV_AT_EPOCH":9691,"BSTAR":4.8795e-5,"MEAN_MOTION_DOT":4.89e-6,"MEAN_MOTION_DDOT":0},{"OBJECT_NAME":"STARLINK-3593","OBJECT_ID":"2022-022AW","EPOCH":"2023-11-23T19:29:07.431648","MEAN_MOTION":15.0883837,"ECCENTRICITY":0.0001597,"INCLINATION":53.2167,"RA_OF_ASC_NODE":156.2332,"ARG_OF_PERICENTER":101.6144,"MEAN_ANOMALY":258.5028,"EPHEMERIS_TYPE":0,"CLASSIFICATION_TYPE":"U","NORAD_CAT_ID":51896,"ELEMENT_SET_NO":999,"REV_AT_EPOCH":9695,"BSTAR":-2.1376e-5,"MEAN_MOTION_DOT":-6.28e-6,"MEAN_MOTION_DDOT":0},{"OBJECT_NAME":"STARLINK-3598","OBJECT_ID":"2022-022AX","EPOCH":"2023-11-23T22:02:45.900384","MEAN_MOTION":15.08837223,"ECCENTRICITY":0.0001472,"INCLINATION":53.2163,"RA_OF_ASC_NODE":155.5326,"ARG_OF_PERICENTER":85.6577,"MEAN_ANOMALY":274.4583,"EPHEMERIS_TYPE":0,"CLASSIFICATION_TYPE":"U","NORAD_CAT_ID":51897,"ELEMENT_SET_NO":999,"REV_AT_EPOCH":9692,"BSTAR":3.4375e-5,"MEAN_MOTION_DOT":2.59e-6,"MEAN_MOTION_DDOT":0},{"OBJECT_NAME":"STARLINK-3597","OBJECT_ID":"2022-022AY","EPOCH":"2023-11-23T21:57:27.922464","MEAN_MOTION":15.08835228,"ECCENTRICITY":0.0001404,"INCLINATION":53.2159,"RA_OF_ASC_NODE":155.5503,"ARG_OF_PERICENTER":91.24,"MEAN_ANOMALY":268.8753,"EPHEMERIS_TYPE":0,"CLASSIFICATION_TYPE":"U","NORAD_CAT_ID":51898,"ELEMENT_SET_NO":999,"REV_AT_EPOCH":9697,"BSTAR":7.3229e-5,"MEAN_MOTION_DOT":8.78e-6,"MEAN_MOTION_DDOT":0},{"OBJECT_NAME":"2022-023A","OBJECT_ID":"2022-023A","EPOCH":"2023-11-24T03:26:08.391552","MEAN_MOTION":15.18045068,"ECCENTRICITY":0.0079408,"INCLINATION":63.4496,"RA_OF_ASC_NODE":212.2207,"ARG_OF_PERICENTER":325.9997,"MEAN_ANOMALY":33.604,"EPHEMERIS_TYPE":0,"CLASSIFICATION_TYPE":"U","NORAD_CAT_ID":51946,"ELEMENT_SET_NO":999,"REV_AT_EPOCH":9559,"BSTAR":0.001439,"MEAN_MOTION_DOT":0.00031902,"MEAN_MOTION_DDOT":0},{"OBJECT_NAME":"2022-023B","OBJECT_ID":"2022-023B","EPOCH":"2023-11-24T01:46:41.109024","MEAN_MOTION":15.1799807,"ECCENTRICITY":0.0074097,"INCLINATION":63.4443,"RA_OF_ASC_NODE":212.162,"ARG_OF_PERICENTER":334.4332,"MEAN_ANOMALY":25.3123,"EPHEMERIS_TYPE":0,"CLASSIFICATION_TYPE":"U","NORAD_CAT_ID":51947,"ELEMENT_SET_NO":999,"REV_AT_EPOCH":9558,"BSTAR":0.0013336,"MEAN_MOTION_DOT":0.0002918,"MEAN_MOTION_DDOT":0},{"OBJECT_NAME":"2022-023C","OBJECT_ID":"2022-023C","EPOCH":"2023-11-24T03:31:20.345664","MEAN_MOTION":15.18614132,"ECCENTRICITY":0.006904,"INCLINATION":63.4526,"RA_OF_ASC_NODE":211.9567,"ARG_OF_PERICENTER":336.3695,"MEAN_ANOMALY":23.425,"EPHEMERIS_TYPE":0,"CLASSIFICATION_TYPE":"U","NORAD_CAT_ID":51948,"ELEMENT_SET_NO":999,"REV_AT_EPOCH":9559,"BSTAR":0.001446,"MEAN_MOTION_DOT":0.0003195,"MEAN_MOTION_DDOT":0},{"OBJECT_NAME":"2022-023D","OBJECT_ID":"2022-023D","EPOCH":"2023-11-24T03:36:29.778624","MEAN_MOTION":15.18182047,"ECCENTRICITY":0.0070931,"INCLINATION":63.4643,"RA_OF_ASC_NODE":212.4775,"ARG_OF_PERICENTER":337.6374,"MEAN_ANOMALY":22.165,"EPHEMERIS_TYPE":0,"CLASSIFICATION_TYPE":"U","NORAD_CAT_ID":51949,"ELEMENT_SET_NO":999,"REV_AT_EPOCH":9559,"BSTAR":0.0014351,"MEAN_MOTION_DOT":0.0003141,"MEAN_MOTION_DDOT":0},{"OBJECT_NAME":"2022-023E","OBJECT_ID":"2022-023E","EPOCH":"2023-11-24T01:33:37.904256","MEAN_MOTION":13.92914045,"ECCENTRICITY":0.0074909,"INCLINATION":63.4653,"RA_OF_ASC_NODE":240.7946,"ARG_OF_PERICENTER":346.4821,"MEAN_ANOMALY":13.047,"EPHEMERIS_TYPE":0,"CLASSIFICATION_TYPE":"U","NORAD_CAT_ID":51950,"ELEMENT_SET_NO":999,"REV_AT_EPOCH":9502,"BSTAR":-1.0836,"MEAN_MOTION_DOT":-0.01349301,"MEAN_MOTION_DDOT":0},{"OBJECT_NAME":"2022-023F","OBJECT_ID":"2022-023F","EPOCH":"2023-11-24T03:41:49.346304","MEAN_MOTION":15.18394136,"ECCENTRICITY":0.0073184,"INCLINATION":63.4779,"RA_OF_ASC_NODE":212.504,"ARG_OF_PERICENTER":344.3587,"MEAN_ANOMALY":15.5264,"EPHEMERIS_TYPE":0,"CLASSIFICATION_TYPE":"U","NORAD_CAT_ID":51951,"ELEMENT_SET_NO":999,"REV_AT_EPOCH":9559,"BSTAR":0.0014777,"MEAN_MOTION_DOT":0.000327,"MEAN_MOTION_DDOT":0},{"OBJECT_NAME":"2022-023G","OBJECT_ID":"2022-023G","EPOCH":"2023-11-24T02:41:30.280128","MEAN_MOTION":15.48751468,"ECCENTRICITY":0.0078313,"INCLINATION":63.4282,"RA_OF_ASC_NODE":169.3565,"ARG_OF_PERICENTER":349.2163,"MEAN_ANOMALY":10.7281,"EPHEMERIS_TYPE":0,"CLASSIFICATION_TYPE":"U","NORAD_CAT_ID":51952,"ELEMENT_SET_NO":999,"REV_AT_EPOCH":9638,"BSTAR":0.00071634,"MEAN_MOTION_DOT":0.00043754,"MEAN_MOTION_DDOT":0},{"OBJECT_NAME":"NOOR-2","OBJECT_ID":"2022-024A","EPOCH":"2023-11-24T01:55:42.355776","MEAN_MOTION":15.4703985,"ECCENTRICITY":0.0018676,"INCLINATION":58.2756,"RA_OF_ASC_NODE":119.4024,"ARG_OF_PERICENTER":94.8473,"MEAN_ANOMALY":265.4731,"EPHEMERIS_TYPE":0,"CLASSIFICATION_TYPE":"U","NORAD_CAT_ID":51954,"ELEMENT_SET_NO":999,"REV_AT_EPOCH":9573,"BSTAR":0.0011848,"MEAN_MOTION_DOT":0.00061094,"MEAN_MOTION_DDOT":0},{"OBJECT_NAME":"STARLINK-3700","OBJECT_ID":"2022-025A","EPOCH":"2023-11-23T21:05:17.463840","MEAN_MOTION":15.08027113,"ECCENTRICITY":0.0001478,"INCLINATION":53.0541,"RA_OF_ASC_NODE":183.6371,"ARG_OF_PERICENTER":90.6322,"MEAN_ANOMALY":269.4837,"EPHEMERIS_TYPE":0,"CLASSIFICATION_TYPE":"U","NORAD_CAT_ID":51956,"ELEMENT_SET_NO":999,"REV_AT_EPOCH":9484,"BSTAR":-1.2512e-5,"MEAN_MOTION_DOT":-4.81e-6,"MEAN_MOTION_DDOT":0},{"OBJECT_NAME":"STARLINK-3694","OBJECT_ID":"2022-025B","EPOCH":"2023-11-23T21:34:17.333472","MEAN_MOTION":15.04760337,"ECCENTRICITY":0.0001519,"INCLINATION":53.0531,"RA_OF_ASC_NODE":189.5534,"ARG_OF_PERICENTER":87.7978,"MEAN_ANOMALY":272.3184,"EPHEMERIS_TYPE":0,"CLASSIFICATION_TYPE":"U","NORAD_CAT_ID":51957,"ELEMENT_SET_NO":999,"REV_AT_EPOCH":9476,"BSTAR":-4.7471e-5,"MEAN_MOTION_DOT":-9.54e-6,"MEAN_MOTION_DDOT":0}]
