STARLINK-3587           
1 51892U 22022AS  23327.80818752 -.00001124  00000+0 -52585-4 0  9997
2 51892  53.2165 156.0268 0001435  97.2448 262.8707 15.08828929 96902
STARLINK-3579           
1 51893U 22022AT  23327.79346930 -.00000455  00000+0 -10511-4 0  9999
2 51893  53.2170 156.0941 0001508  88.6533 271.4632 15.08834216 96962
STARLINK-3595           
1 51894U 22022AU  23327.79714951 -.00001782  00000+0 -93926-4 0  9997
2 51894  53.2154 156.0798 0001650  79.3582 280.7596 15.08829656 96968
STARLINK-3594           
1 51895U 22022AV  23327.85602461  .00000489  00000+0  48795-4 0  9992
2 51895  53.2144 155.8138 0001462  81.4293 278.6864 15.08837478 96917
STARLINK-3593           
1 51896U 22022AW  23327.81189157 -.00000628  00000+0 -21376-4 0  9994
2 51896  53.2167 156.2332 0001597 101.6144 258.5028 15.08838370 96958
STARLINK-3598           
1 51897U 22022AX  23327.91858681  .00000259  00000+0  34375-4 0  9992
2 51897  53.2163 155.5326 0001472  85.6577 274.4583 15.08837223 96929
STARLINK-3597           
1 51898U 22022AY  23327.91490651  .00000878  00000+0  73229-4 0  9990
2 51898  53.2159 155.5503 0001404  91.2400 268.8753 15.08835228 96979
2022-023A               
1 51946U 22023A   23328.14315268  .00031902  00000+0  14390-2 0  9995
2 51946  63.4496 212.2207 0079408 325.9997  33.6040 15.18045068 95599
2022-023B               
1 51947U 22023B   23328.07408691  .00029180  00000+0  13336-2 0  9995
2 51947  63.4443 212.1620 0074097 334.4332  25.3123 15.17998070 95585
2022-023C               
1 51948U 22023C   23328.14676326  .00031950  00000+0  14460-2 0  9993
2 51948  63.4526 211.9567 0069040 336.3695  23.4250 15.18614132 95596
2022-023D               
1 51949U 22023D   23328.15034466  .00031410  00000+0  14351-2 0  9998
2 51949  63.4643 212.4775 0070931 337.6374  22.1650 15.18182047 95598
2022-023E               
1 51950U 22023E   23328.06502204 -.01349301  00000+0 -10836+1 0  9996
2 51950  63.4653 240.7946 0074909 346.4821  13.0470 13.92914045 95027
2022-023F               
1 51951U 22023F   23328.15404336  .00032700  00000+0  14777-2 0  9993
2 51951  63.4779 212.5040 0073184 344.3587  15.5264 15.18394136 95592
2022-023G               
1 51952U 22023G   23328.11215602  .00043754  00000+0  71634-3 0  9993
2 51952  63.4282 169.3565 0078313 349.2163  10.7281 15.48751468 96388
NOOR-2                  
1 51954U 22024A   23328.08035134  .00061094  00000+0  11848-2 0  9999
2 51954  58.2756 119.4024 0018676  94.8473 265.4731 15.47039850 95737
STARLINK-3700           
1 51956U 22025A   23327.87867435 -.00000481  00000+0 -12512-4 0  9991
2 51956  53.0541 183.6371 0001478  90.6322 269.4837 15.08027113 94849
STARLINK-3694           
1 51957U 22025B   23327.89881173 -.00000954  00000+0 -47471-4 0  9996
2 51957  53.0531 189.5534 0001519  87.7978 272.3184 15.04760337 94762
